NORAD_CAT_ID,OBJECT_NAME,OBJECT_TYPE,EPOCH,MEAN_MOTION,ECCENTRICITY,INCLINATION,RA_OF_ASC_NODE,ARG_OF_PERICENTER,MEAN_ANOMALY,BSTAR,MEAN_MOTION_DOT,MEAN_MOTION_DDOT,TLE_LINE0,TLE_LINE1,TLE_LINE2,SEMIMAJOR_AXIS,PERIOD,APOGEE,PERIGEE,DECAYED
53172.0,STARLINK-4299,PAYLOAD,2023-07-08 07:49:21,15.08838891,7.78e-05,53.2157,217.6085,85.5264,274.5817,5.5853e-05,6.01e-06,0.0,0 STARLINK-4299,1 53172U 22083AS  23189.32594101  .00000601  00000-0  55853-4 0  9998,2 53172  53.2157 217.6085 0000778  85.5264 274.5817 15.08838891 54817,6917.884,95.438,540.287,539.211,0.0
53172.0,STARLINK-4299,PAYLOAD,2023-07-09 10:50:54,15.08838985,7.81e-05,53.2157,212.5533,85.1572,274.9509,2.2514e-05,7.1e-07,0.0,0 STARLINK-4299,1 53172U 22083AS  23190.45202264  .00000071  00000-0  22514-4 0  9999,2 53172  53.2157 212.5533 0000781  85.1572 274.9509 15.08838985 54985,6917.883,95.438,540.289,539.208,0.0
53172.0,STARLINK-4299,PAYLOAD,2023-07-10 18:38:37,15.08840897,7.41e-05,53.2153,206.6064,80.2676,279.8399,6.4403e-05,7.38e-06,0.0,0 STARLINK-4299,1 53172U 22083AS  23191.77682049  .00000738  00000-0  64403-4 0  9991,2 53172  53.2153 206.6064 0000741  80.2676 279.8399 15.08840897 55180,6917.878,95.437,540.255,539.23,0.0
53172.0,STARLINK-4299,PAYLOAD,2023-07-12 10:23:16,15.0881806,7.1e-05,53.2156,199.1718,85.5042,274.6031,0.00034494,5.203e-05,0.0,0 STARLINK-4299,1 53172U 22083AS  23193.43282820  .00005203  00000-0  34494-3 0  9997,2 53172  53.2156 199.1718 0000710  85.5042 274.6031 15.08818060 55437,6917.947,95.439,540.304,539.321,0.0
53172.0,STARLINK-4299,PAYLOAD,2023-07-13 16:35:35,15.08835916,9.17e-05,53.2162,193.5217,75.6384,284.4709,-3.8938e-06,-3.5e-06,0.0,0 STARLINK-4299,1 53172U 22083AS  23194.69138676 -.00000350  00000-0 -38938-5 0  9994,2 53172  53.2162 193.5217 0000917  75.6384 284.4709 15.08835916 55625,6917.893,95.438,540.392,539.124,0.0
53172.0,STARLINK-4299,PAYLOAD,2023-07-15 00:23:18,15.08834598,9.44e-05,53.2163,187.5738,71.1511,288.9583,1.3473e-05,-7.3e-07,0.0,0 STARLINK-4299,1 53172U 22083AS  23196.01619086 -.00000073  00000-0  13473-4 0  9998,2 53172  53.2163 187.5738 0000944  71.1511 288.9583 15.08834598 55826,6917.897,95.438,540.415,539.109,0.0
53172.0,STARLINK-4299,PAYLOAD,2023-07-15 09:55:37,15.08839007,9.77e-05,53.216,185.7897,72.2809,287.829,4.9172e-05,4.95e-06,0.0,0 STARLINK-4299,1 53172U 22083AS  23196.41362778  .00000495  00000-0  49172-4 0  9997,2 53172  53.2160 185.7897 0000977  72.2809 287.8290 15.08839007 55886,6917.883,95.438,540.424,539.073,0.0
53172.0,STARLINK-4299,PAYLOAD,2023-07-16 16:07:57,15.08837621,0.0001016,53.2161,180.1395,84.5683,275.5425,6.8846e-05,8.08e-06,0.0,0 STARLINK-4299,1 53172U 22083AS  23197.67219007  .00000808  00000-0  68846-4 0  9999,2 53172  53.2161 180.1395 0001016  84.5683 275.5425 15.08837621 56076,6917.888,95.438,540.456,539.05,0.0
53172.0,STARLINK-4299,PAYLOAD,2023-07-17 22:20:16,15.08839688,9.8e-05,53.2157,174.4913,82.7311,277.3792,5.6115e-05,6.05e-06,0.0,0 STARLINK-4299,1 53172U 22083AS  23198.93074957  .00000605  00000-0  56115-4 0  9993,2 53172  53.2157 174.4913 0000980  82.7311 277.3792 15.08839688 56263,6917.881,95.438,540.424,539.068,0.0
53172.0,STARLINK-4299,PAYLOAD,2023-07-18 07:52:35,15.08846822,0.0001009,53.2158,172.7062,87.008,273.1027,8.2441e-05,1.025e-05,0.0,0 STARLINK-4299,1 53172U 22083AS  23199.32818375  .00001025  00000-0  82441-4 0  9995,2 53172  53.2158 172.7062 0001009  87.0080 273.1027 15.08846822 56324,6917.86,95.437,540.423,539.027,0.0
53172.0,STARLINK-4299,PAYLOAD,2023-07-19 07:43:22,15.08840341,0.0001066,53.2163,168.2442,97.8591,262.2522,2.6406e-05,1.32e-06,0.0,0 STARLINK-4299,1 53172U 22083AS  23200.32178829  .00000132  00000-0  26406-4 0  9998,2 53172  53.2163 168.2442 0001066  97.8591 262.2522 15.08840341 56476,6917.879,95.438,540.482,539.007,0.0
53172.0,STARLINK-4299,PAYLOAD,2023-07-20 23:28:01,15.08836913,0.0001165,53.2168,160.8118,109.7126,250.3992,4.0298e-05,3.54e-06,0.0,0 STARLINK-4299,1 53172U 22083AS  23201.97779409  .00000354  00000-0  40298-4 0  9992,2 53172  53.2168 160.8118 0001165 109.7126 250.3992 15.08836913 56723,6917.89,95.438,540.561,538.949,0.0
53172.0,STARLINK-4299,PAYLOAD,2023-07-24 05:21:55,15.08835339,0.0001152,53.2167,146.2404,110.8071,249.3044,-2.3094e-05,-6.55e-06,0.0,0 STARLINK-4299,1 53172U 22083AS  23205.22356174 -.00000655  00000-0 -23094-4 0  9995,2 53172  53.2167 146.2404 0001152 110.8071 249.3044 15.08835339 56576,6917.895,95.438,540.557,538.963,0.0
53172.0,STARLINK-4299,PAYLOAD,2023-07-25 05:12:42,15.08840057,0.0001144,53.2179,141.7778,119.746,240.3646,4.364e-05,4.07e-06,0.0,0 STARLINK-4299,1 53172U 22083AS  23206.21715806  .00000407  00000-0  43640-4 0  9998,2 53172  53.2179 141.7778 0001144 119.7460 240.3646 15.08840057 56723,6917.88,95.438,540.537,538.954,0.0
53172.0,STARLINK-4299,PAYLOAD,2023-07-26 05:03:29,15.08844917,0.0001072,53.2173,137.3204,98.6918,261.4196,7.2047e-05,8.59e-06,0.0,0 STARLINK-4299,1 53172U 22083AS  23207.21075397  .00000859  00000-0  72047-4 0  9997,2 53172  53.2173 137.3204 0001072  98.6918 261.4196 15.08844917 56874,6917.865,95.437,540.472,538.989,0.0
53172.0,STARLINK-4299,PAYLOAD,2023-07-27 01:43:29,15.08853866,0.0001065,53.2159,133.4521,103.6538,256.4573,0.00014031,1.947e-05,0.0,0 STARLINK-4299,1 53172U 22083AS  23208.07186598  .00001947  00000-0  14031-3 0  9995,2 53172  53.2159 133.4521 0001065 103.6538 256.4573 15.08853866 57646,6917.838,95.437,540.44,538.966,0.0
53172.0,STARLINK-4299,PAYLOAD,2023-07-27 04:54:15,15.08853361,0.0001003,53.2184,132.8616,96.5425,263.5681,0.00014618,2.04e-05,0.0,0 STARLINK-4299,1 53172U 22083AS  23208.20434478  .00002040  00000-0  14618-3 0  9999,2 53172  53.2184 132.8616 0001003  96.5425 263.5681 15.08853361 57020,6917.84,95.437,540.398,539.011,0.0
53172.0,STARLINK-4299,PAYLOAD,2023-07-27 23:58:55,15.08828016,0.0001113,53.2167,129.2883,95.2493,264.8626,-0.00011462,-2.111e-05,0.0,0 STARLINK-4299,1 53172U 22083AS  23208.99925203 -.00002111  00000-0 -11462-3 0  9991,2 53172  53.2167 129.2883 0001113  95.2493 264.8626 15.08828016 57785,6917.917,95.438,540.552,539.012,0.0
53172.0,STARLINK-4299,PAYLOAD,2023-07-28 04:45:04,15.08832142,0.000113,53.2177,128.3999,98.0385,262.0736,-0.00012523,-2.28e-05,0.0,0 STARLINK-4299,1 53172U 22083AS  23209.19797083 -.00002280  00000-0 -12523-3 0  9993,2 53172  53.2177 128.3999 0001130  98.0385 262.0736 15.08832142 57174,6917.904,95.438,540.551,538.988,0.0
53172.0,STARLINK-4299,PAYLOAD,2023-07-28 19:03:32,15.08843456,9.5e-05,53.2172,125.7241,75.0535,285.0563,-4.4437e-05,-9.95e-06,0.0,0 STARLINK-4299,1 53172U 22083AS  23209.79412508 -.00000995  00000-0 -44437-4 0  9996,2 53172  53.2172 125.7241 0000950  75.0535 285.0563 15.08843456 57905,6917.87,95.437,540.392,539.078,0.0
53172.0,STARLINK-4299,PAYLOAD,2023-07-29 01:25:04,15.0885332,9.73e-05,53.2173,124.5345,76.9156,283.1945,5.3092e-05,5.58e-06,0.0,0 STARLINK-4299,1 53172U 22083AS  23210.05907484  .00000558  00000-0  53092-4 0  9999,2 53172  53.2173 124.5345 0000973  76.9156 283.1945 15.08853320 57940,6917.84,95.437,540.378,539.032,0.0
53172.0,STARLINK-4299,PAYLOAD,2023-07-29 18:54:19,15.08816558,0.0001218,53.219,121.2661,91.1085,269.0047,0.0003132,4.697e-05,0.0,0 STARLINK-4299,1 53172U 22083AS  23210.78772961  .00004697  00000-0  31320-3 0  9996,2 53172  53.2190 121.2661 0001218  91.1085 269.0047 15.08816558 58058,6917.952,95.439,540.66,538.974,0.0
53172.0,STARLINK-4299,PAYLOAD,2023-07-29 23:40:28,15.08836245,0.0001089,53.2173,120.3722,84.4255,275.6862,0.00014972,2.096e-05,0.0,0 STARLINK-4299,1 53172U 22083AS  23210.98644558  .00002096  00000-0  14972-3 0  9993,2 53172  53.2173 120.3722 0001089  84.4255 275.6862 15.08836245 58083,6917.892,95.438,540.51,539.004,0.0
53172.0,STARLINK-4299,PAYLOAD,2023-07-30 04:26:37,15.08841298,0.0001165,53.2178,119.4796,80.9375,279.1749,0.00019296,2.785e-05,0.0,0 STARLINK-4299,1 53172U 22083AS  23211.18516176  .00002785  00000-0  19296-3 0  9999,2 53172  53.2178 119.4796 0001165  80.9375 279.1749 15.08841298 58118,6917.876,95.437,540.547,538.935,0.0
53172.0,STARLINK-4299,PAYLOAD,2023-07-31 10:38:57,15.08848771,0.0001369,53.219,113.8281,76.7805,283.3339,-7.619e-05,-1.501e-05,0.0,0 STARLINK-4299,1 53172U 22083AS  23212.44372444 -.00001501  00000-0 -76190-4 0  9991,2 53172  53.2190 113.8281 0001369  76.7805 283.3339 15.08848771 58302,6917.854,95.437,540.666,538.772,0.0
53172.0,STARLINK-4299,PAYLOAD,2023-08-01 00:57:26,15.08838217,0.0001399,53.2187,111.1528,83.9149,276.2003,-2.6318e-05,-7.07e-06,0.0,0 STARLINK-4299,1 53172U 22083AS  23213.03989140 -.00000707  00000-0 -26318-4 0  9998,2 53172  53.2187 111.1528 0001399  83.9149 276.2003 15.08838217 58399,6917.886,95.438,540.719,538.783,0.0
53172.0,STARLINK-4299,PAYLOAD,2023-08-01 23:12:50,15.08845316,0.0001184,53.2174,106.9906,90.9496,269.1632,5.2191e-05,5.43e-06,0.0,0 STARLINK-4299,1 53172U 22083AS  23213.96724666  .00000543  00000-0  52191-4 0  9994,2 53172  53.2174 106.9906 0001184  90.9496 269.1632 15.08845316 58535,6917.864,95.437,540.548,538.91,0.0
53172.0,STARLINK-4299,PAYLOAD,2023-08-03 02:14:23,15.08846174,0.0001251,53.2172,101.9342,85.0396,275.0739,0.00012679,1.731e-05,0.0,0 STARLINK-4299,1 53172U 22083AS  23215.09332482  .00001731  00000-0  12679-3 0  9997,2 53172  53.2172 101.9342 0001251  85.0396 275.0739 15.08846174 58707,6917.862,95.437,540.592,538.861,0.0
53172.0,STARLINK-4299,PAYLOAD,2023-08-03 22:54:24,15.08840443,0.0001201,53.2169,98.0679,81.3029,278.8099,2.2225e-05,6.6e-07,0.0,0 STARLINK-4299,1 53172U 22083AS  23215.95445251  .00000066  00000-0  22225-4 0  9990,2 53172  53.2169  98.0679 0001201  81.3029 278.8099 15.08840443 58836,6917.879,95.438,540.575,538.913,0.0
53172.0,STARLINK-4299,PAYLOAD,2023-08-05 22:35:58,15.08846636,0.0001149,53.2177,89.1527,108.7215,251.3902,0.0001442,2.008e-05,0.0,0 STARLINK-4299,1 53172U 22083AS  23217.94164708  .00002008  00000-0  14420-3 0  9991,2 53172  53.2177  89.1527 0001149 108.7215 251.3902 15.08846636 59133,6917.86,95.437,540.52,538.93,0.0
